[{"OBJECT_NAME":"O3B FM5","OBJECT_ID":"2013-031A","EPOCH":"2026-03-28T02:01:35.391360","MEAN_MOTION":5.00116427,"ECCENTRICITY":0.0003249,"INCLINATION":0.1013,"RA_OF_ASC_NODE":7.8394,"ARG_OF_PERICENTER":349.0661,"MEAN_ANOMALY":3.0879,"EPHEMERIS_TYPE":0,"CLASSIFICATION_TYPE":"U","NORAD_CAT_ID":39188,"ELEMENT_SET_NO":999,"REV_AT_EPOCH":23298,"BSTAR":0,"MEAN_MOTION_DOT":-2.9e-7,"MEAN_MOTION_DDOT":0},{"OBJECT_NAME":"O3B FM4","OBJECT_ID":"2013-031B","EPOCH":"2026-03-27T09:41:53.263680","MEAN_MOTION":5.00115128,"ECCENTRICITY":0.0005069,"INCLINATION":0.0535,"RA_OF_ASC_NODE":345.5776,"ARG_OF_PERICENTER":27.4764,"MEAN_ANOMALY":346.9547,"EPHEMERIS_TYPE":0,"CLASSIFICATION_TYPE":"U","NORAD_CAT_ID":39189,"ELEMENT_SET_NO":999,"REV_AT_EPOCH":23295,"BSTAR":0,"MEAN_MOTION_DOT":-2.8e-7,"MEAN_MOTION_DDOT":0},{"OBJECT_NAME":"O3B FM2","OBJECT_ID":"2013-031C","EPOCH":"2026-03-28T11:15:37.759392","MEAN_MOTION":5.00115944,"ECCENTRICITY":0.0002806,"INCLINATION":0.0527,"RA_OF_ASC_NODE":338.9684,"ARG_OF_PERICENTER":25.6513,"MEAN_ANOMALY":355.3782,"EPHEMERIS_TYPE":0,"CLASSIFICATION_TYPE":"U","NORAD_CAT_ID":39190,"ELEMENT_SET_NO":999,"REV_AT_EPOCH":23306,"BSTAR":0,"MEAN_MOTION_DOT":-2.9e-7,"MEAN_MOTION_DDOT":0},{"OBJECT_NAME":"O3B PFM","OBJECT_ID":"2013-031D","EPOCH":"2026-03-21T21:17:09.784320","MEAN_MOTION":5.00116261,"ECCENTRICITY":0.00053256,"INCLINATION":0.0686,"RA_OF_ASC_NODE":5.4871,"ARG_OF_PERICENTER":11.7167,"MEAN_ANOMALY":342.8128,"EPHEMERIS_TYPE":0,"CLASSIFICATION_TYPE":"U","NORAD_CAT_ID":39191,"ELEMENT_SET_NO":999,"REV_AT_EPOCH":23229,"BSTAR":0,"MEAN_MOTION_DOT":-1.5e-7,"MEAN_MOTION_DDOT":0},{"OBJECT_NAME":"O3B FM3","OBJECT_ID":"2014-038A","EPOCH":"2026-03-27T08:24:51.210144","MEAN_MOTION":5.00115572,"ECCENTRICITY":8.66e-5,"INCLINATION":0.0529,"RA_OF_ASC_NODE":354.5796,"ARG_OF_PERICENTER":77.5671,"MEAN_ANOMALY":287.8583,"EPHEMERIS_TYPE":0,"CLASSIFICATION_TYPE":"U","NORAD_CAT_ID":40079,"ELEMENT_SET_NO":999,"REV_AT_EPOCH":20895,"BSTAR":0,"MEAN_MOTION_DOT":-2.8e-7,"MEAN_MOTION_DDOT":0},{"OBJECT_NAME":"O3B FM7","OBJECT_ID":"2014-038B","EPOCH":"2026-03-28T11:54:17.068032","MEAN_MOTION":5.00115569,"ECCENTRICITY":0.00042727,"INCLINATION":0.0574,"RA_OF_ASC_NODE":348.2906,"ARG_OF_PERICENTER":6.567,"MEAN_ANOMALY":5.1333,"EPHEMERIS_TYPE":0,"CLASSIFICATION_TYPE":"U","NORAD_CAT_ID":40080,"ELEMENT_SET_NO":999,"REV_AT_EPOCH":21384,"BSTAR":0,"MEAN_MOTION_DOT":-2.9e-7,"MEAN_MOTION_DDOT":0},{"OBJECT_NAME":"O3B FM6","OBJECT_ID":"2014-038C","EPOCH":"2026-03-28T12:33:09.837792","MEAN_MOTION":5.00115666,"ECCENTRICITY":0.00026403,"INCLINATION":0.0541,"RA_OF_ASC_NODE":351.7652,"ARG_OF_PERICENTER":13.3857,"MEAN_ANOMALY":354.8471,"EPHEMERIS_TYPE":0,"CLASSIFICATION_TYPE":"U","NORAD_CAT_ID":40081,"ELEMENT_SET_NO":999,"REV_AT_EPOCH":21378,"BSTAR":0,"MEAN_MOTION_DOT":-2.9e-7,"MEAN_MOTION_DDOT":0},{"OBJECT_NAME":"O3B FM8","OBJECT_ID":"2014-038D","EPOCH":"2026-03-28T09:02:04.759872","MEAN_MOTION":5.00115959,"ECCENTRICITY":0.00026783,"INCLINATION":0.0547,"RA_OF_ASC_NODE":351.0058,"ARG_OF_PERICENTER":17.8266,"MEAN_ANOMALY":351.1676,"EPHEMERIS_TYPE":0,"CLASSIFICATION_TYPE":"U","NORAD_CAT_ID":40082,"ELEMENT_SET_NO":999,"REV_AT_EPOCH":21390,"BSTAR":0,"MEAN_MOTION_DOT":-2.9e-7,"MEAN_MOTION_DDOT":0},{"OBJECT_NAME":"O3B FM10","OBJECT_ID":"2014-083A","EPOCH":"2026-03-27T09:41:53.331936","MEAN_MOTION":5.00115499,"ECCENTRICITY":0.0002686,"INCLINATION":0.0455,"RA_OF_ASC_NODE":334.8109,"ARG_OF_PERICENTER":31.2091,"MEAN_ANOMALY":353.9787,"EPHEMERIS_TYPE":0,"CLASSIFICATION_TYPE":"U","NORAD_CAT_ID":40348,"ELEMENT_SET_NO":999,"REV_AT_EPOCH":20580,"BSTAR":0,"MEAN_MOTION_DOT":-2.8e-7,"MEAN_MOTION_DDOT":0},{"OBJECT_NAME":"O3B FM11","OBJECT_ID":"2014-083B","EPOCH":"2026-03-27T10:00:10.642176","MEAN_MOTION":5.00115538,"ECCENTRICITY":0.0003039,"INCLINATION":0.0578,"RA_OF_ASC_NODE":0.2533,"ARG_OF_PERICENTER":353.3632,"MEAN_ANOMALY":6.3752,"EPHEMERIS_TYPE":0,"CLASSIFICATION_TYPE":"U","NORAD_CAT_ID":40349,"ELEMENT_SET_NO":999,"REV_AT_EPOCH":20582,"BSTAR":0,"MEAN_MOTION_DOT":-2.8e-7,"MEAN_MOTION_DDOT":0},{"OBJECT_NAME":"O3B FM12","OBJECT_ID":"2014-083C","EPOCH":"2026-03-28T10:38:22.956864","MEAN_MOTION":5.00115911,"ECCENTRICITY":0.0002595,"INCLINATION":0.057,"RA_OF_ASC_NODE":359.6526,"ARG_OF_PERICENTER":2.2595,"MEAN_ANOMALY":358.0842,"EPHEMERIS_TYPE":0,"CLASSIFICATION_TYPE":"U","NORAD_CAT_ID":40350,"ELEMENT_SET_NO":999,"REV_AT_EPOCH":20588,"BSTAR":0,"MEAN_MOTION_DOT":-2.9e-7,"MEAN_MOTION_DDOT":0},{"OBJECT_NAME":"O3B FM9","OBJECT_ID":"2014-083D","EPOCH":"2026-03-28T01:41:20.063904","MEAN_MOTION":5.00115876,"ECCENTRICITY":0.00027123,"INCLINATION":0.059,"RA_OF_ASC_NODE":0.2729,"ARG_OF_PERICENTER":5.1843,"MEAN_ANOMALY":354.5411,"EPHEMERIS_TYPE":0,"CLASSIFICATION_TYPE":"U","NORAD_CAT_ID":40351,"ELEMENT_SET_NO":999,"REV_AT_EPOCH":20600,"BSTAR":0,"MEAN_MOTION_DOT":-2.9e-7,"MEAN_MOTION_DDOT":0},{"OBJECT_NAME":"LEO 1 (LEO VANTAGE 1)","OBJECT_ID":"2018-004C","EPOCH":"2026-03-28T11:00:25.785792","MEAN_MOTION":14.67375675,"ECCENTRICITY":0.03512759,"INCLINATION":99.2461,"RA_OF_ASC_NODE":355.2192,"ARG_OF_PERICENTER":327.3676,"MEAN_ANOMALY":30.6244,"EPHEMERIS_TYPE":0,"CLASSIFICATION_TYPE":"U","NORAD_CAT_ID":43113,"ELEMENT_SET_NO":999,"REV_AT_EPOCH":42564,"BSTAR":0.00036446439,"MEAN_MOTION_DOT":5.221e-5,"MEAN_MOTION_DDOT":0},{"OBJECT_NAME":"O3B FM15","OBJECT_ID":"2018-024A","EPOCH":"2026-03-28T12:53:10.294944","MEAN_MOTION":5.00115676,"ECCENTRICITY":0.00026589,"INCLINATION":0.05,"RA_OF_ASC_NODE":2.8181,"ARG_OF_PERICENTER":0.972,"MEAN_ANOMALY":356.2073,"EPHEMERIS_TYPE":0,"CLASSIFICATION_TYPE":"U","NORAD_CAT_ID":43231,"ELEMENT_SET_NO":999,"REV_AT_EPOCH":14698,"BSTAR":0,"MEAN_MOTION_DOT":-2.9e-7,"MEAN_MOTION_DDOT":0},{"OBJECT_NAME":"O3B FM16","OBJECT_ID":"2018-024B","EPOCH":"2026-03-28T04:32:53.462688","MEAN_MOTION":5.00115912,"ECCENTRICITY":0.00027106,"INCLINATION":0.0466,"RA_OF_ASC_NODE":5.8364,"ARG_OF_PERICENTER":356.8955,"MEAN_ANOMALY":357.2649,"EPHEMERIS_TYPE":0,"CLASSIFICATION_TYPE":"U","NORAD_CAT_ID":43232,"ELEMENT_SET_NO":999,"REV_AT_EPOCH":14689,"BSTAR":0,"MEAN_MOTION_DOT":-2.9e-7,"MEAN_MOTION_DDOT":0},{"OBJECT_NAME":"O3B FM14","OBJECT_ID":"2018-024C","EPOCH":"2026-03-28T10:19:26.132448","MEAN_MOTION":5.00115664,"ECCENTRICITY":0.0002863,"INCLINATION":0.0452,"RA_OF_ASC_NODE":5.163,"ARG_OF_PERICENTER":0.7325,"MEAN_ANOMALY":354.1033,"EPHEMERIS_TYPE":0,"CLASSIFICATION_TYPE":"U","NORAD_CAT_ID":43233,"ELEMENT_SET_NO":999,"REV_AT_EPOCH":14691,"BSTAR":0,"MEAN_MOTION_DOT":-2.9e-7,"MEAN_MOTION_DDOT":0},{"OBJECT_NAME":"O3B FM13","OBJECT_ID":"2018-024D","EPOCH":"2026-03-25T16:44:28.678560","MEAN_MOTION":5.00115556,"ECCENTRICITY":0.00039678,"INCLINATION":0.047,"RA_OF_ASC_NODE":335.8508,"ARG_OF_PERICENTER":348.6026,"MEAN_ANOMALY":35.5167,"EPHEMERIS_TYPE":0,"CLASSIFICATION_TYPE":"U","NORAD_CAT_ID":43234,"ELEMENT_SET_NO":999,"REV_AT_EPOCH":14688,"BSTAR":0,"MEAN_MOTION_DOT":-2.4e-7,"MEAN_MOTION_DDOT":0}]
